NORAD_CAT_ID,OBJECT_NAME,OBJECT_TYPE,EPOCH,MEAN_MOTION,ECCENTRICITY,INCLINATION,RA_OF_ASC_NODE,ARG_OF_PERICENTER,MEAN_ANOMALY,BSTAR,MEAN_MOTION_DOT,MEAN_MOTION_DDOT,TLE_LINE0,TLE_LINE1,TLE_LINE2,SEMIMAJOR_AXIS,PERIOD,APOGEE,PERIGEE,DECAYED
51109.0,STARLINK-3358,PAYLOAD,2023-10-11 06:28:56,15.08842869,0.0001813,53.2152,281.4758,93.7091,266.4108,0.00054944,8.468e-05,0.0,0 STARLINK-3358,1 51109U 22005F   23284.27009423  .00008468  00000-0  54944-3 0  9996,2 51109  53.2152 281.4758 0001813  93.7091 266.4108 15.08842869 95735,6917.872,95.437,540.991,538.482,0.0
51109.0,STARLINK-3358,PAYLOAD,2023-10-12 04:44:21,15.08837327,0.0001625,53.2155,277.3119,107.2956,252.8214,0.001319,0.00020765,0.0,0 STARLINK-3358,1 51109U 22005F   23285.19746660  .00020765  00000-0  13190-2 0  9990,2 51109  53.2155 277.3119 0001625 107.2956 252.8214 15.08837327 97210,6917.889,95.438,540.878,538.629,0.0
51109.0,STARLINK-3358,PAYLOAD,2023-10-12 06:19:44,15.08827908,0.0001612,53.2157,277.0144,96.4254,263.6922,0.0013088,0.00020596,0.0,0 STARLINK-3358,1 51109U 22005F   23285.26370794  .00020596  00000-0  13088-2 0  9997,2 51109  53.2157 277.0144 0001612  96.4254 263.6922 15.08827908 95884,6917.917,95.438,540.898,538.667,0.0
51109.0,STARLINK-3358,PAYLOAD,2023-10-13 04:35:07,15.08874893,0.0001607,53.2159,272.8521,89.6331,270.4845,0.0014753,0.00023292,0.0,0 STARLINK-3358,1 51109U 22005F   23286.19105996  .00023292  00000-0  14753-2 0  9996,2 51109  53.2159 272.8521 0001607  89.6331 270.4845 15.08874893 97362,6917.774,95.435,540.75,538.527,0.0
51109.0,STARLINK-3358,PAYLOAD,2023-10-14 04:25:53,15.08859934,0.0001744,53.2158,268.391,113.2484,246.8692,0.001657,0.00026196,0.0,0 STARLINK-3358,1 51109U 22005F   23287.18465009  .00026196  00000-0  16570-2 0  9995,2 51109  53.2158 268.3910 0001744 113.2484 246.8692 15.08859934 97511,6917.819,95.436,540.891,538.478,0.0
51109.0,STARLINK-3358,PAYLOAD,2023-10-14 06:01:16,15.08862999,0.000164,53.2157,268.094,108.4839,251.6331,0.0016093,0.00025433,0.0,0 STARLINK-3358,1 51109U 22005F   23287.25088943  .00025433  00000-0  16093-2 0  9994,2 51109  53.2157 268.0940 0001640 108.4839 251.6331 15.08862999 96186,6917.81,95.436,540.81,538.541,0.0
51109.0,STARLINK-3358,PAYLOAD,2023-10-14 15:33:35,15.08857677,0.0001597,53.2159,266.3105,97.433,262.6844,0.0008715,0.00013616,0.0,0 STARLINK-3358,1 51109U 22005F   23287.64833076  .00013616  00000-0  87150-3 0  9995,2 51109  53.2159 266.3105 0001597  97.4330 262.6844 15.08857677 97589,6917.826,95.436,540.796,538.587,0.0
51109.0,STARLINK-3358,PAYLOAD,2023-10-14 21:55:08,15.08834962,0.00025,53.2163,265.1213,89.3234,270.8045,0.00085617,0.00013362,0.0,0 STARLINK-3358,1 51109U 22005F   23287.91329805  .00013362  00000-0  85617-3 0  9999,2 51109  53.2163 265.1213 0002500  89.3234 270.8045 15.08834962 96281,6917.896,95.438,541.49,538.031,0.0
51109.0,STARLINK-3358,PAYLOAD,2023-10-15 04:16:41,15.08816376,0.0001416,53.2159,263.9306,95.3635,264.7519,0.0012134,0.00019063,0.0,0 STARLINK-3358,1 51109U 22005F   23288.17826245  .00019063  00000-0  12134-2 0  9995,2 51109  53.2159 263.9306 0001416  95.3635 264.7519 15.08816376 97662,6917.953,95.439,540.797,538.838,0.0
51109.0,STARLINK-3358,PAYLOAD,2023-10-15 07:27:28,15.08819923,0.0001475,53.2159,263.3358,94.2878,265.8283,0.0017349,0.00027416,0.0,0 STARLINK-3358,1 51109U 22005F   23288.31074489  .00027416  00000-0  17349-2 0  9990,2 51109  53.2159 263.3358 0001475  94.2878 265.8283 15.08819923 96340,6917.942,95.439,540.827,538.786,0.0
51109.0,STARLINK-3358,PAYLOAD,2023-10-15 15:24:24,15.08837472,0.0001473,53.2158,261.8486,98.6333,261.4827,0.0017074,0.00026988,0.0,0 STARLINK-3358,1 51109U 22005F   23288.64194690  .00026988  00000-0  17074-2 0  9991,2 51109  53.2158 261.8486 0001473  98.6333 261.4827 15.08837472 96396,6917.888,95.438,540.772,538.734,0.0
51109.0,STARLINK-3358,PAYLOAD,2023-10-16 04:07:28,15.08868376,0.0001474,53.2157,259.4695,101.2095,258.9063,0.0018418,0.00029169,0.0,0 STARLINK-3358,1 51109U 22005F   23289.17186151  .00029169  00000-0  18418-2 0  9990,2 51109  53.2157 259.4695 0001474 101.2095 258.9063 15.08868376 97815,6917.794,95.436,540.678,538.639,0.0
51109.0,STARLINK-3358,PAYLOAD,2023-10-16 07:18:14,15.08875562,0.0001487,53.2157,258.8747,101.0494,259.0665,0.0018489,0.00029289,0.0,0 STARLINK-3358,1 51109U 22005F   23289.30433878  .00029289  00000-0  18489-2 0  9997,2 51109  53.2157 258.8747 0001487 101.0494 259.0665 15.08875562 96499,6917.772,95.435,540.665,538.608,0.0
51109.0,STARLINK-3358,PAYLOAD,2023-10-17 11:55:11,15.08869874,0.0001313,53.2158,253.5216,112.6441,247.469,0.0018093,0.00028648,0.0,0 STARLINK-3358,1 51109U 22005F   23290.49665820  .00028648  00000-0  18093-2 0  9992,2 51109  53.2158 253.5216 0001313 112.6441 247.4690 15.08869874 98019,6917.789,95.436,540.562,538.746,0.0
51109.0,STARLINK-3358,PAYLOAD,2023-10-17 13:30:34,15.08814709,0.0001254,53.216,253.2247,84.5504,275.5631,0.0017432,0.00027545,0.0,0 STARLINK-3358,1 51109U 22005F   23290.56290180  .00027545  00000-0  17432-2 0  9994,2 51109  53.2160 253.2247 0001254  84.5504 275.5631 15.08814709 96689,6917.958,95.439,540.69,538.955,0.0
51109.0,STARLINK-3358,PAYLOAD,2023-10-18 02:13:40,15.08841402,0.000127,53.2157,250.8471,81.0646,279.049,0.0016954,0.00026798,0.0,0 STARLINK-3358,1 51109U 22005F   23291.09282594  .00026798  00000-0  16954-2 0  9990,2 51109  53.2157 250.8471 0001270  81.0646 279.0490 15.08841402 96765,6917.876,95.437,540.62,538.863,0.0
51109.0,STARLINK-3358,PAYLOAD,2023-10-18 14:56:45,15.08849283,0.0001439,53.2159,248.4689,87.8154,272.3003,0.00091863,0.00014366,0.0,0 STARLINK-3358,1 51109U 22005F   23291.62274462  .00014366  00000-0  91863-3 0  9995,2 51109  53.2159 248.4689 0001439  87.8154 272.3003 15.08849283 98185,6917.852,95.437,540.712,538.722,0.0
51109.0,STARLINK-3358,PAYLOAD,2023-10-18 21:18:17,15.0885262,0.0001461,53.2152,247.2788,99.4544,260.6613,0.00076553,0.00011921,0.0,0 STARLINK-3358,1 51109U 22005F   23291.88770293  .00011921  00000-0  76553-3 0  9999,2 51109  53.2152 247.2788 0001461  99.4544 260.6613 15.08852620 96883,6917.842,95.437,540.718,538.696,0.0
51109.0,STARLINK-3358,PAYLOAD,2023-10-19 06:50:35,15.0886766,0.000155,53.2161,245.4935,104.3672,255.7492,0.00094673,0.00014823,0.0,0 STARLINK-3358,1 51109U 22005F   23292.28513653  .00014823  00000-0  94673-3 0  9996,2 51109  53.2161 245.4935 0001550 104.3672 255.7492 15.08867660 96941,6917.796,95.436,540.733,538.589,0.0
51109.0,STARLINK-3358,PAYLOAD,2023-10-19 21:09:04,15.08850448,0.0001429,53.2152,242.8189,82.3636,277.7518,0.00042566,6.495e-05,0.0,0 STARLINK-3358,1 51109U 22005F   23292.88129915  .00006495  00000-0  42566-3 0  9996,2 51109  53.2152 242.8189 0001429  82.3636 277.7518 15.08850448 98371,6917.848,95.437,540.702,538.725,0.0
51109.0,STARLINK-3358,PAYLOAD,2023-10-20 03:30:36,15.08849422,0.0001369,53.216,241.6286,88.4912,271.6237,0.00041533,6.33e-05,0.0,0 STARLINK-3358,1 51109U 22005F   23293.14625840  .00006330  00000-0  41533-3 0  9995,2 51109  53.2160 241.6286 0001369  88.4912 271.6237 15.08849422 97079,6917.852,95.437,540.664,538.77,0.0
51109.0,STARLINK-3358,PAYLOAD,2023-10-20 20:59:51,15.08832143,0.0001455,53.2167,238.3565,84.0598,276.056,0.00068632,0.00010649,0.0,0 STARLINK-3358,1 51109U 22005F   23293.87490724  .00010649  00000-0  68632-3 0  9993,2 51109  53.2167 238.3565 0001455  84.0598 276.0560 15.08832143 97189,6917.904,95.438,540.776,538.763,0.0
51109.0,STARLINK-3358,PAYLOAD,2023-10-21 01:46:01,15.08835059,0.000163,53.2165,237.4643,100.834,259.2836,0.0008857,0.00013834,0.0,0 STARLINK-3358,1 51109U 22005F   23294.07362826  .00013834  00000-0  88570-3 0  9999,2 51109  53.2165 237.4643 0001630 100.8340 259.2836 15.08835059 98551,6917.895,95.438,540.888,538.633,0.0
51109.0,STARLINK-3358,PAYLOAD,2023-10-21 20:50:38,15.08855969,0.0001526,53.2162,233.8962,101.5516,258.5647,0.00075572,0.00011765,0.0,0 STARLINK-3358,1 51109U 22005F   23294.86850285  .00011765  00000-0  75572-3 0  9996,2 51109  53.2162 233.8962 0001526 101.5516 258.5647 15.08855969 97338,6917.832,95.437,540.752,538.641,0.0
51109.0,STARLINK-3358,PAYLOAD,2023-10-22 03:12:10,15.08866562,0.0001493,53.2163,232.71,103.4007,256.7152,0.00085275,0.00013319,0.0,0 STARLINK-3358,1 51109U 22005F   23295.13345806  .00013319  00000-0  85275-3 0  9993,2 51109  53.2163 232.7100 0001493 103.4007 256.7152 15.08866562 98715,6917.799,95.436,540.697,538.631,0.0
51109.0,STARLINK-3358,PAYLOAD,2023-10-22 12:44:29,15.0885847,0.0001119,53.2165,230.9231,87.7476,272.3644,0.00040911,6.232e-05,0.0,0 STARLINK-3358,1 51109U 22005F   23295.53089481  .00006232  00000-0  40911-3 0  9995,2 51109  53.2165 230.9231 0001119  87.7476 272.3644 15.08858470 97438,6917.824,95.436,540.463,538.915,0.0
51109.0,STARLINK-3358,PAYLOAD,2023-10-23 03:02:58,15.08820938,0.0001523,53.2172,228.2485,93.6147,266.5019,2.5049e-05,1.11e-06,0.0,0 STARLINK-3358,1 51109U 22005F   23296.12706877  .00000111  00000-0  25049-4 0  9992,2 51109  53.2172 228.2485 0001523  93.6147 266.5019 15.08820938 98864,6917.939,95.439,540.857,538.75,0.0
51109.0,STARLINK-3358,PAYLOAD,2023-10-24 04:29:08,15.08866198,0.0001433,53.216,223.4907,85.2868,274.8288,0.0015369,0.00024274,0.0,0 STARLINK-3358,1 51109U 22005F   23297.18690944  .00024274  00000-0  15369-2 0  9994,2 51109  53.2160 223.4907 0001433  85.2868 274.8288 15.08866198 99021,6917.8,95.436,540.657,538.674,0.0
51109.0,STARLINK-3358,PAYLOAD,2023-10-25 04:19:55,15.08859371,0.0001555,53.2164,219.0293,85.7844,274.3325,0.00085148,0.00013296,0.0,0 STARLINK-3358,1 51109U 22005F   23298.18050843  .00013296  00000-0  85148-3 0  9998,2 51109  53.2164 219.0293 0001555  85.7844 274.3325 15.08859371 99176,6917.821,95.436,540.762,538.61,0.0
51109.0,STARLINK-3358,PAYLOAD,2023-10-26 04:10:43,15.0884365,0.0001903,53.2176,214.5636,107.3515,252.7685,0.00021092,3.071e-05,0.0,0 STARLINK-3358,1 51109U 22005F   23299.17411038  .00003071  00000-0  21092-3 0  9993,2 51109  53.2176 214.5636 0001903 107.3515 252.7685 15.08843650 99322,6917.869,95.437,541.051,538.418,0.0
